{
  "type": "FeatureCollection",
  "name": "emergency_medical_services",
  "features": [
    {
      "type": "Feature",
      "id": 1,
      "geometry": {
        "type": "Point",
        "coordinates": [
          121.518555,
          25.040776
        ]
      },
      "properties": {
        "hospital_name": "國立台灣大學醫學院附設醫院",
        "city": "臺北市",
        "district": "中正區",
        "address": "臺北市中正區中山南路７號",
        "tel": "(02)23123456",
        "lng": 121.518555,
        "lat": 25.040776
      }
    },
    {
      "type": "Feature",
      "id": 2,
      "geometry": {
        "type": "Point",
        "coordinates": [
          121.511534,
          25.024279
        ]
      },
      "properties": {
        "hospital_name": "臺北市立聯合醫院（和平婦幼院區）",
        "city": "臺北市",
        "district": "中正區",
        "address": "臺北市中正區中華路二段３３號",
        "tel": "(02)23889595",
        "lng": 121.511534,
        "lat": 25.024279
      }
    },
    {
      "type": "Feature",
      "id": 3,
      "geometry": {
        "type": "Point",
        "coordinates": [
          121.494347,
          25.027645
        ]
      },
      "properties": {
        "hospital_name": "西園醫院",
        "city": "臺北市",
        "district": "萬華區",
        "address": "臺北市萬華區西園路二段２７６號",
        "tel": "(02)23076968",
        "lng": 121.494347,
        "lat": 25.027645
      }
    },
    {
      "type": "Feature",
      "id": 4,
      "geometry": {
        "type": "Point",
        "coordinates": [
          121.508885,
          25.050693
        ]
      },
      "properties": {
        "hospital_name": "臺北市立聯合醫院（中興院區）",
        "city": "臺北市",
        "district": "大同區",
        "address": "臺北市大同區鄭州路１４５號",
        "tel": "(02)25523234",
        "lng": 121.508885,
        "lat": 25.050693
      }
    },
    {
      "type": "Feature",
      "id": 5,
      "geometry": {
        "type": "Point",
        "coordinates": [
          121.523114,
          25.116369
        ]
      },
      "properties": {
        "hospital_name": "振興醫療財團法人振興醫院",
        "city": "臺北市",
        "district": "北投區",
        "address": "臺北市北投區振興街４５號",
        "tel": "(02)28264400",
        "lng": 121.523114,
        "lat": 25.116369
      }
    },
    {
      "type": "Feature",
      "id": 6,
      "geometry": {
        "type": "Point",
        "coordinates": [
          121.522479,
          25.120637
        ]
      },
      "properties": {
        "hospital_name": "臺北榮民總醫院",
        "city": "臺北市",
        "district": "北投區",
        "address": "臺北市北投區石牌路二段２０１號",
        "tel": "(02)28712121",
        "lng": 121.522479,
        "lat": 25.120637
      }
    },
    {
      "type": "Feature",
      "id": 7,
      "geometry": {
        "type": "Point",
        "coordinates": [
          121.557692,
          25.049904
        ]
      },
      "properties": {
        "hospital_name": "博仁綜合醫院",
        "city": "臺北市",
        "district": "松山區",
        "address": "臺北市松山區光復北路６６號",
        "tel": "(02)25786677",
        "lng": 121.557692,
        "lat": 25.049904
      }
    },
    {
      "type": "Feature",
      "id": 8,
      "geometry": {
        "type": "Point",
        "coordinates": [
          121.557702,
          25.05394
        ]
      },
      "properties": {
        "hospital_name": "三軍總醫院松山分院附設民眾診療服務處",
        "city": "臺北市",
        "district": "松山區",
        "address": "臺北市松山區健康路１３１號",
        "tel": "(02)27642151",
        "lng": 121.557702,
        "lat": 25.05394
      }
    },
    {
      "type": "Feature",
      "id": 9,
      "geometry": {
        "type": "Point",
        "coordinates": [
          121.547274,
          25.048054
        ]
      },
      "properties": {
        "hospital_name": "基督復臨安息日會醫療財團法人臺安醫院",
        "city": "臺北市",
        "district": "松山區",
        "address": "臺北市松山區八德路二段４２４號",
        "tel": "(02)27718151",
        "lng": 121.547274,
        "lat": 25.048054
      }
    },
    {
      "type": "Feature",
      "id": 10,
      "geometry": {
        "type": "Point",
        "coordinates": [
          121.563635,
          25.026639
        ]
      },
      "properties": {
        "hospital_name": "臺北醫學大學附設醫院",
        "city": "臺北市",
        "district": "信義區",
        "address": "臺北市信義區吳興街２５２號",
        "tel": "(02)27372181",
        "lng": 121.563635,
        "lat": 25.026639
      }
    },
    {
      "type": "Feature",
      "id": 11,
      "geometry": {
        "type": "Point",
        "coordinates": [
          121.52285,
          25.060446
        ]
      },
      "properties": {
        "hospital_name": "財團法人臺灣基督長老教會馬偕紀念社會事業基金會馬偕紀念醫院",
        "city": "臺北市",
        "district": "中山區",
        "address": "臺北市中山區中山北路二段９２號",
        "tel": "(02)25433535",
        "lng": 121.52285,
        "lat": 25.060446
      }
    },
    {
      "type": "Feature",
      "id": 12,
      "geometry": {
        "type": "Point",
        "coordinates": [
          121.557849,
          25.000833
        ]
      },
      "properties": {
        "hospital_name": "臺北市立萬芳醫院",
        "city": "臺北市",
        "district": "文山區",
        "address": "臺北市文山區興隆路三段１１１號",
        "tel": "(02)29307930",
        "lng": 121.557849,
        "lat": 25.000833
      }
    },
    {
      "type": "Feature",
      "id": 13,
      "geometry": {
        "type": "Point",
        "coordinates": [
          121.586154,
          25.046508
        ]
      },
      "properties": {
        "hospital_name": "臺北市立聯合醫院（忠孝院區）",
        "city": "臺北市",
        "district": "南港區",
        "address": "臺北市南港區同德路８７號",
        "tel": "(02)27861288",
        "lng": 121.586154,
        "lat": 25.046508
      }
    },
    {
      "type": "Feature",
      "id": 14,
      "geometry": {
        "type": "Point",
        "coordinates": [
          121.554474,
          25.038857
        ]
      },
      "properties": {
        "hospital_name": "臺北市立聯合醫院（仁愛院區）",
        "city": "臺北市",
        "district": "大安區",
        "address": "臺北市大安區仁愛路四段１０號",
        "tel": "(02)27093600",
        "lng": 121.554474,
        "lat": 25.038857
      }
    },
    {
      "type": "Feature",
      "id": 15,
      "geometry": {
        "type": "Point",
        "coordinates": [
          121.552799,
          25.037179
        ]
      },
      "properties": {
        "hospital_name": "國泰醫療財團法人國泰綜合醫院",
        "city": "臺北市",
        "district": "大安區",
        "address": "臺北市大安區仁愛路四段２６６巷６號",
        "tel": "(02)27082121",
        "lng": 121.552799,
        "lat": 25.037179
      }
    },
    {
      "type": "Feature",
      "id": 16,
      "geometry": {
        "type": "Point",
        "coordinates": [
          121.520986,
          25.09625
        ]
      },
      "properties": {
        "hospital_name": "新光醫療財團法人新光吳火獅紀念醫院",
        "city": "臺北市",
        "district": "士林區",
        "address": "臺北市士林區文昌路９５號",
        "tel": "(02)28332211",
        "lng": 121.520986,
        "lat": 25.09625
      }
    },
    {
      "type": "Feature",
      "id": 17,
      "geometry": {
        "type": "Point",
        "coordinates": [
          121.531563,
          25.105195
        ]
      },
      "properties": {
        "hospital_name": "臺北市立聯合醫院（陽明院區）",
        "city": "臺北市",
        "district": "士林區",
        "address": "臺北市士林區雨聲街１０５號",
        "tel": "(02)28353456",
        "lng": 121.531563,
        "lat": 25.105195
      }
    },
    {
      "type": "Feature",
      "id": 18,
      "geometry": {
        "type": "Point",
        "coordinates": [
          121.591979,
          25.071802
        ]
      },
      "properties": {
        "hospital_name": "三軍總醫院附設民眾診療服務處",
        "city": "臺北市",
        "district": "內湖區",
        "address": "臺北市內湖區成功路二段３２５號",
        "tel": "(02)87923311",
        "lng": 121.591979,
        "lat": 25.071802
      }
    },
    {
      "type": "Feature",
      "id": 19,
      "geometry": {
        "type": "Point",
        "coordinates": [
          121.451983,
          24.997441
        ]
      },
      "properties": {
        "hospital_name": "醫療財團法人徐元智先生醫藥基金會亞東紀念醫院",
        "city": "新北市",
        "district": "板橋區",
        "address": "新北市板橋區南雅南路2段21號",
        "tel": "(02)89667000",
        "lng": 121.451983,
        "lat": 24.997441
      }
    },
    {
      "type": "Feature",
      "id": 20,
      "geometry": {
        "type": "Point",
        "coordinates": [
          121.460499,
          25.139535
        ]
      },
      "properties": {
        "hospital_name": "台灣基督長老教會馬偕醫療財團法人淡水馬偕紀念醫院",
        "city": "新北市",
        "district": "淡水區",
        "address": "新北市淡水區民生路45號",
        "tel": "(02)28094661",
        "lng": 121.460499,
        "lat": 25.139535
      }
    },
    {
      "type": "Feature",
      "id": 21,
      "geometry": {
        "type": "Point",
        "coordinates": [
          121.49404,
          24.993751
        ]
      },
      "properties": {
        "hospital_name": "衛生福利部雙和醫院（委託臺北醫學大學興建經營）",
        "city": "新北市",
        "district": "中和區",
        "address": "新北市中和區中正路291號",
        "tel": "(02)22490088",
        "lng": 121.49404,
        "lat": 24.993751
      }
    },
    {
      "type": "Feature",
      "id": 22,
      "geometry": {
        "type": "Point",
        "coordinates": [
          121.535808,
          24.985781
        ]
      },
      "properties": {
        "hospital_name": "佛教慈濟醫療財團法人台北慈濟醫院",
        "city": "新北市",
        "district": "新店區",
        "address": "新北市新店區建國路289號",
        "tel": "(02)66289779",
        "lng": 121.535808,
        "lat": 24.985781
      }
    },
    {
      "type": "Feature",
      "id": 23,
      "geometry": {
        "type": "Point",
        "coordinates": [
          121.535551,
          24.97612
        ]
      },
      "properties": {
        "hospital_name": "天主教耕莘醫療財團法人耕莘醫院",
        "city": "新北市",
        "district": "新店區",
        "address": "新北市新店區中正路362號",
        "tel": "(02)22193391",
        "lng": 121.535551,
        "lat": 24.97612
      }
    },
    {
      "type": "Feature",
      "id": 24,
      "geometry": {
        "type": "Point",
        "coordinates": [
          121.430799,
          25.039676
        ]
      },
      "properties": {
        "hospital_name": "輔仁大學學校財團法人輔仁大學附設醫院",
        "city": "新北市",
        "district": "泰山區",
        "address": "新北市泰山區貴子路69號",
        "tel": "(02)85128888",
        "lng": 121.430799,
        "lat": 25.039676
      }
    },
    {
      "type": "Feature",
      "id": 25,
      "geometry": {
        "type": "Point",
        "coordinates": [
          121.44873,
          24.976437
        ]
      },
      "properties": {
        "hospital_name": "新北市立土城醫院（委託長庚醫療財團法人興建經營）",
        "city": "新北市",
        "district": "土城區",
        "address": "新北市土城區金城路2段6號",
        "tel": "(02)22630588",
        "lng": 121.44873,
        "lat": 24.976437
      }
    },
    {
      "type": "Feature",
      "id": 26,
      "geometry": {
        "type": "Point",
        "coordinates": [
          121.459623,
          25.043241
        ]
      },
      "properties": {
        "hospital_name": "衛生福利部臺北醫院",
        "city": "新北市",
        "district": "新莊區",
        "address": "新北市新莊區思源路127號",
        "tel": "(02)22765566",
        "lng": 121.459623,
        "lat": 25.043241
      }
    },
    {
      "type": "Feature",
      "id": 27,
      "geometry": {
        "type": "Point",
        "coordinates": [
          121.363008,
          24.938386
        ]
      },
      "properties": {
        "hospital_name": "行天宮醫療志業醫療財團法人恩主公醫院",
        "city": "新北市",
        "district": "三峽區",
        "address": "新北市三峽區復興路399號",
        "tel": "(02)26723456",
        "lng": 121.363008,
        "lat": 24.938386
      }
    },
    {
      "type": "Feature",
      "id": 28,
      "geometry": {
        "type": "Point",
        "coordinates": [
          121.661084,
          25.072872
        ]
      },
      "properties": {
        "hospital_name": "國泰醫療財團法人汐止國泰綜合醫院",
        "city": "新北市",
        "district": "汐止區",
        "address": "新北市汐止區建成路59巷2號",
        "tel": "(02)26482121",
        "lng": 121.661084,
        "lat": 25.072872
      }
    },
    {
      "type": "Feature",
      "id": 29,
      "geometry": {
        "type": "Point",
        "coordinates": [
          121.490202,
          25.061139
        ]
      },
      "properties": {
        "hospital_name": "新北市立聯合醫院（三重院區）",
        "city": "新北市",
        "district": "三重區",
        "address": "新北市三重區新北大道一段3號",
        "tel": "(02)29829111",
        "lng": 121.490202,
        "lat": 25.061139
      }
    },
    {
      "type": "Feature",
      "id": 30,
      "geometry": {
        "type": "Point",
        "coordinates": [
          121.518431,
          25.012126
        ]
      },
      "properties": {
        "hospital_name": "天主教耕莘醫療財團法人永和耕莘醫院",
        "city": "新北市",
        "district": "永和區",
        "address": "新北市永和區中興街80號",
        "tel": "(02)29286060",
        "lng": 121.518431,
        "lat": 25.012126
      }
    },
    {
      "type": "Feature",
      "id": 31,
      "geometry": {
        "type": "Point",
        "coordinates": [
          121.504537,
          24.953977
        ]
      },
      "properties": {
        "hospital_name": "天主教耕莘醫療財團法人耕莘醫院安康院區",
        "city": "新北市",
        "district": "新店區",
        "address": "新北市新店區車子路15號",
        "tel": "(02)22123066",
        "lng": 121.504537,
        "lat": 24.953977
      }
    },
    {
      "type": "Feature",
      "id": 32,
      "geometry": {
        "type": "Point",
        "coordinates": [
          121.628398,
          25.21965
        ]
      },
      "properties": {
        "hospital_name": "國立臺灣大學醫學院附設醫院金山分院",
        "city": "新北市",
        "district": "金山區",
        "address": "新北市金山區五湖里玉爐路7號",
        "tel": "(02)24989898",
        "lng": 121.628398,
        "lat": 25.21965
      }
    },
    {
      "type": "Feature",
      "id": 33,
      "geometry": {
        "type": "Point",
        "coordinates": [
          121.409851,
          25.021622
        ]
      },
      "properties": {
        "hospital_name": "衛生福利部樂生醫院",
        "city": "新北市",
        "district": "新莊區",
        "address": "新北市新莊區中正路794號",
        "tel": "(02)82006600",
        "lng": 121.409851,
        "lat": 25.021622
      }
    },
    {
      "type": "Feature",
      "id": 34,
      "geometry": {
        "type": "Point",
        "coordinates": [
          121.80217,
          25.108602
        ]
      },
      "properties": {
        "hospital_name": "瑞芳礦工醫院",
        "city": "新北市",
        "district": "瑞芳區",
        "address": "新北市瑞芳區一坑路71之2號",
        "tel": "(02)24974101",
        "lng": 121.80217,
        "lat": 25.108602
      }
    },
    {
      "type": "Feature",
      "id": 35,
      "geometry": {
        "type": "Point",
        "coordinates": [
          121.420039,
          24.987188
        ]
      },
      "properties": {
        "hospital_name": "仁愛醫院",
        "city": "新北市",
        "district": "樹林區",
        "address": "新北市樹林區文化街9號",
        "tel": "(02)26834567",
        "lng": 121.420039,
        "lat": 24.987188
      }
    },
    {
      "type": "Feature",
      "id": 36,
      "geometry": {
        "type": "Point",
        "coordinates": [
          121.434313,
          25.021504
        ]
      },
      "properties": {
        "hospital_name": "新泰綜合醫院",
        "city": "新北市",
        "district": "新莊區",
        "address": "新北市新莊區新樹路176號",
        "tel": "(02)29962121",
        "lng": 121.434313,
        "lat": 25.021504
      }
    },
    {
      "type": "Feature",
      "id": 37,
      "geometry": {
        "type": "Point",
        "coordinates": [
          121.48378,
          25.053965
        ]
      },
      "properties": {
        "hospital_name": "宏仁醫院",
        "city": "新北市",
        "district": "三重區",
        "address": "新北市三重區水漾路一段158號",
        "tel": "(02)29788877",
        "lng": 121.48378,
        "lat": 25.053965
      }
    }
  ]
}